{
    "links": {
        "self": "http://www.neowsapp.com/rest/v1/neo/3837912?api_key=iIulBulltgU6a56xZRHN4H3l9WmuAYTsLGpBGhQ2"
    },
    "id": "3837912",
    "neo_reference_id": "3837912",
    "name": "(2019 AP13)",
    "designation": "2019 AP13",
    "nasa_jpl_url": "http://ssd.jpl.nasa.gov/sbdb.cgi?sstr=3837912",
    "absolute_magnitude_h": 21.5,
    "estimated_diameter": {
        "kilometers": {
            "estimated_diameter_min": 0.1332155667,
            "estimated_diameter_max": 0.2978790628
        },
        "meters": {
            "estimated_diameter_min": 133.2155666981,
            "estimated_diameter_max": 297.8790627982
        },
        "miles": {
            "estimated_diameter_min": 0.0827762899,
            "estimated_diameter_max": 0.1850934111
        },
        "feet": {
            "estimated_diameter_min": 437.0589598459,
            "estimated_diameter_max": 977.2935443908
        }
    },
    "is_potentially_hazardous_asteroid": false,
    "close_approach_data": [
        {
            "close_approach_date": "2009-12-28",
            "close_approach_date_full": "2009-Dec-28 05:55",
            "epoch_date_close_approach": 1261979700000,
            "relative_velocity": {
                "kilometers_per_second": "23.0001781651",
                "kilometers_per_hour": "82800.6413943355",
                "miles_per_hour": "51449.098537497"
            },
            "miss_distance": {
                "astronomical": "0.2354160188",
                "lunar": "91.5768313132",
                "kilometers": "35217734.976359956",
                "miles": "21883285.7728651528"
            },
            "orbiting_body": "Earth"
        },
        {
            "close_approach_date": "2016-06-10",
            "close_approach_date_full": "2016-Jun-10 19:53",
            "epoch_date_close_approach": 1465588380000,
            "relative_velocity": {
                "kilometers_per_second": "7.3334630088",
                "kilometers_per_hour": "26400.4668318539",
                "miles_per_hour": "16404.2234044928"
            },
            "miss_distance": {
                "astronomical": "1.5971594302",
                "lunar": "621.2950183478",
                "kilometers": "238931648.808333674",
                "miles": "148465242.1447417412"
            },
            "orbiting_body": "Juptr"
        },
        {
            "close_approach_date": "2018-12-23",
            "close_approach_date_full": "2018-Dec-23 14:02",
            "epoch_date_close_approach": 1545573720000,
            "relative_velocity": {
                "kilometers_per_second": "20.7818666574",
                "kilometers_per_hour": "74814.7199665856",
                "miles_per_hour": "46486.9575259043"
            },
            "miss_distance": {
                "astronomical": "0.3062970302",
                "lunar": "119.1495447478",
                "kilometers": "45821383.305245674",
                "miles": "28472087.3176473412"
            },
            "orbiting_body": "Earth"
        },
        {
            "close_approach_date": "2051-11-29",
            "close_approach_date_full": "2051-Nov-29 07:19",
            "epoch_date_close_approach": 2584855140000,
            "relative_velocity": {
                "kilometers_per_second": "8.0237366573",
                "kilometers_per_hour": "28885.4519661444",
                "miles_per_hour": "17948.2965286301"
            },
            "miss_distance": {
                "astronomical": "1.5493467075",
                "lunar": "602.6958692175",
                "kilometers": "231778967.333513025",
                "miles": "144020771.969108745"
            },
            "orbiting_body": "Juptr"
        },
        {
            "close_approach_date": "2171-06-20",
            "close_approach_date_full": "2171-Jun-20 06:45",
            "epoch_date_close_approach": 6357681900000,
            "relative_velocity": {
                "kilometers_per_second": "25.1972686477",
                "kilometers_per_hour": "90710.1671315922",
                "miles_per_hour": "56363.7702379607"
            },
            "miss_distance": {
                "astronomical": "0.2019178881",
                "lunar": "78.5460584709",
                "kilometers": "30206485.974658347",
                "miles": "18769440.0341533086"
            },
            "orbiting_body": "Earth"
        }
    ],
    "orbital_data": {
        "orbit_id": "4",
        "orbit_determination_date": "2019-02-03 07:03:57",
        "first_observation_date": "2019-01-01",
        "last_observation_date": "2019-02-02",
        "data_arc_in_days": 32,
        "observations_used": 33,
        "orbit_uncertainty": "7",
        "minimum_orbit_intersection": ".0681285",
        "jupiter_tisserand_invariant": "2.644",
        "epoch_osculation": "2459000.5",
        "eccentricity": ".8417137008009737",
        "semi_major_axis": "2.720411565210832",
        "inclination": "20.47346980360683",
        "ascending_node_longitude": "116.4561582499346",
        "orbital_period": "1638.892038853046",
        "perihelion_distance": ".430603878955453",
        "perihelion_argument": "244.7835161602704",
        "aphelion_distance": "5.010219251466211",
        "perihelion_time": "2458430.337752370679",
        "mean_anomaly": "125.2421784232979",
        "mean_motion": ".2196605947588473",
        "equinox": "J2000",
        "orbit_class": {
            "orbit_class_type": "APO",
            "orbit_class_description": "Near-Earth asteroid orbits which cross the Earth’s orbit similar to that of 1862 Apollo",
            "orbit_class_range": "a (semi-major axis) > 1.0 AU; q (perihelion) < 1.017 AU"
        }
    },
    "is_sentry_object": false
}